NORAD_CAT_ID,OBJECT_NAME,OBJECT_TYPE,EPOCH,MEAN_MOTION,ECCENTRICITY,INCLINATION,RA_OF_ASC_NODE,ARG_OF_PERICENTER,MEAN_ANOMALY,BSTAR,MEAN_MOTION_DOT,MEAN_MOTION_DDOT,TLE_LINE0,TLE_LINE1,TLE_LINE2,SEMIMAJOR_AXIS,PERIOD,APOGEE,PERIGEE,DECAYED
51109.0,STARLINK-3358,PAYLOAD,2022-05-11 22:00:00,15.24159608,0.0001645,53.2176,84.9331,48.6203,89.7606,-0.01798,-0.00419231,0.0,0 STARLINK-3358,1 51109U 22005F   22131.91667824 -.00419231  00000-0 -17980-1 0  9995,2 51109  53.2176  84.9331 0001645  48.6203  89.7606 15.24159608 18960,6871.446999999999,94.478,494.442,492.182,0.0
51109.0,STARLINK-3358,PAYLOAD,2022-05-12 14:00:01,15.2357513,0.0001628,53.2174,81.8689,49.7655,147.914,-0.018416,-0.00421806,0.0,0 STARLINK-3358,1 51109U 22005F   22132.58334491 -.00421806  00000-0 -18416-1 0  9996,2 51109  53.2174  81.8689 0001628  49.7655 147.9140 15.23575130  1305,6873.204000000002,94.515,496.18800000000016,493.95,0.0
51109.0,STARLINK-3358,PAYLOAD,2022-05-12 22:00:00,15.23280901,0.0001739,53.2175,80.3377,47.2557,179.5458,-0.018463,-0.00419334,0.0,0 STARLINK-3358,1 51109U 22005F   22132.91667824 -.00419334  00000-0 -18463-1 0  9997,2 51109  53.2175  80.3377 0001739  47.2557 179.5458 15.23280901  1303,6874.089,94.533,497.15,494.759,0.0
51109.0,STARLINK-3358,PAYLOAD,2022-05-13 06:00:00,15.22986589,0.0001769,53.2174,78.8088,45.5239,210.0468,-0.018531,-0.00417322,0.0,0 STARLINK-3358,1 51109U 22005F   22133.25001157 -.00417322  00000-0 -18531-1 0  9997,2 51109  53.2174  78.8088 0001769  45.5239 210.0468 15.22986589 19163,6874.975,94.551,498.056,495.624,0.0
51109.0,STARLINK-3358,PAYLOAD,2022-05-13 14:00:01,15.22696506,0.0001503,53.2174,77.2774,54.9212,229.067,-0.018939,-0.0042253,0.0,0 STARLINK-3358,1 51109U 22005F   22133.58334491 -.00422530  00000-0 -18939-1 0  9992,2 51109  53.2174  77.2774 0001503  54.9212 229.0670 15.22696506  1308,6875.848000000001,94.569,498.747,496.68,0.0
51109.0,STARLINK-3358,PAYLOAD,2022-05-13 22:00:00,15.22402767,0.0001505,53.2176,75.7482,55.7492,256.3047,-0.019012,-0.00420588,0.0,0 STARLINK-3358,1 51109U 22005F   22133.91667824 -.00420588  00000-0 -19012-1 0  9992,2 51109  53.2176  75.7482 0001505  55.7492 256.3047 15.22402767  1305,6876.733,94.587,499.632,497.56300000000016,0.0
51109.0,STARLINK-3358,PAYLOAD,2022-05-14 14:00:01,15.21816694,0.00015,53.2174,72.692,48.9862,318.1429,-0.019381,-0.00421333,0.0,0 STARLINK-3358,1 51109U 22005F   22134.58334491 -.00421333  00000-0 -19381-1 0  9995,2 51109  53.2174  72.6920 0001500  48.9862 318.1429 15.21816694 19369,6878.498000000001,94.624,501.395,499.331,0.0
51109.0,STARLINK-3358,PAYLOAD,2022-05-14 22:00:00,15.21524495,0.000171,53.2176,71.1652,40.0062,354.1318,-0.019587,-0.0042212,0.0,0 STARLINK-3358,1 51109U 22005F   22134.91667824 -.00422120  00000-0 -19587-1 0  9994,2 51109  53.2176  71.1652 0001710  40.0062 354.1318 15.21524495  1302,6879.379,94.642,502.42,500.067,0.0
51109.0,STARLINK-3358,PAYLOAD,2022-05-15 14:00:01,15.20936542,0.0001548,53.2174,68.1128,47.0171,40.148,-0.019778,-0.00419083,0.0,0 STARLINK-3358,1 51109U 22005F   22135.58335648 -.00419083  00000-0 -19778-1 0  9990,2 51109  53.2174  68.1128 0001548  47.0171  40.1480 15.20936542 19525,6881.151,94.679,504.082,501.951,0.0
51109.0,STARLINK-3358,PAYLOAD,2022-05-15 22:00:00,15.20645089,0.0001786,53.2175,66.5881,40.745,72.3094,-0.020079,-0.00421697,0.0,0 STARLINK-3358,1 51109U 22005F   22135.91667824 -.00421697  00000-0 -20079-1 0  9991,2 51109  53.2175  66.5881 0001786  40.7450  72.3094 15.20645089  1306,6882.031,94.697,505.125,502.666,0.0
51109.0,STARLINK-3358,PAYLOAD,2022-05-16 14:00:01,15.20057157,0.0001608,53.2174,63.5398,49.2688,114.6369,-0.020232,-0.00417861,0.0,0 STARLINK-3358,1 51109U 22005F   22136.58334491 -.00417861  00000-0 -20232-1 0  9995,2 51109  53.2174  63.5398 0001608  49.2688 114.6369 15.20057157  1303,6883.805,94.733,506.777,504.56300000000016,0.0
51109.0,STARLINK-3358,PAYLOAD,2022-05-16 22:00:00,15.1976522,0.0001827,53.2176,62.0174,42.8099,145.9925,-0.020515,-0.00419996,0.0,0 STARLINK-3358,1 51109U 22005F   22136.91667824 -.00419996  00000-0 -20515-1 0  9996,2 51109  53.2176  62.0174 0001827  42.8099 145.9925 15.19765220 19724,6884.687,94.751,507.809,505.294,0.0
51109.0,STARLINK-3358,PAYLOAD,2022-05-17 14:00:01,15.19177946,0.0001592,53.2174,58.9728,52.3659,185.239,-0.020717,-0.00417084,0.0,0 STARLINK-3358,1 51109U 22005F   22137.58335648 -.00417084  00000-0 -20717-1 0  9996,2 51109  53.2174  58.9728 0001592  52.3659 185.2390 15.19177946  1308,6886.4609999999975,94.788,509.422,507.229,0.0
51109.0,STARLINK-3358,PAYLOAD,2022-05-17 22:00:01,15.18885922,0.0001706,53.2176,57.4527,47.9974,213.4479,-0.020994,-0.00418983,0.0,0 STARLINK-3358,1 51109U 22005F   22137.91668981 -.00418983  00000-0 -20994-1 0  9998,2 51109  53.2176  57.4527 0001706  47.9974 213.4479 15.18885922  1309,6887.343000000003,94.806,510.383,508.033,0.0
51109.0,STARLINK-3358,PAYLOAD,2022-05-18 06:00:00,15.18591293,0.0001478,53.2173,55.9335,57.9795,226.8914,-0.020992,-0.00415558,0.0,0 STARLINK-3358,1 51109U 22005F   22138.25001157 -.00415558  00000-0 -20992-1 0  9995,2 51109  53.2173  55.9335 0001478  57.9795 226.8914 15.18591293 19928,6888.234,94.825,511.117,509.081,0.0
51109.0,STARLINK-3358,PAYLOAD,2022-05-18 14:00:01,15.18298446,0.0001455,53.2175,54.4122,57.0636,250.9457,-0.021209,-0.00416263,0.0,0 STARLINK-3358,1 51109U 22005F   22138.58334491 -.00416263  00000-0 -21209-1 0  9997,2 51109  53.2175  54.4122 0001455  57.0636 250.9457 15.18298446  1305,6889.12,94.843,511.987,509.983,0.0
51109.0,STARLINK-3358,PAYLOAD,2022-05-18 22:00:00,15.180076800000002,0.0001581,53.2176,52.8942,50.0026,280.7904,-0.021591,-0.0042,0.0,0 STARLINK-3358,1 51109U 22005F   22138.91667824 -.00420000  00000-0 -21591-1 0  9991,2 51109  53.2176  52.8942 0001581  50.0026 280.7904 15.18007680  1300,6890.0,94.861,512.9540000000002,510.775,0.0
51109.0,STARLINK-3358,PAYLOAD,2022-05-19 14:00:01,15.17419251,0.0001395999999999,53.2174,49.8576,54.3809,320.991,-0.021743,-0.0041604999999999,0.0,0 STARLINK-3358,1 51109U 22005F   22139.58335648 -.00416050  00000-0 -21743-1 0  9990,2 51109  53.2174  49.8576 0001396  54.3809 320.9910 15.17419251  1301,6891.781,94.898,514.6080000000002,512.684,0.0
51109.0,STARLINK-3358,PAYLOAD,2022-05-19 22:00:00,15.17129137,0.0001604,53.2177,48.342,46.098,350.9379,-0.022192,-0.00420842,0.0,0 STARLINK-3358,1 51109U 22005F   22139.91667824 -.00420842  00000-0 -22192-1 0  9994,2 51109  53.2177  48.3420 0001604  46.0980 350.9379 15.17129137 20175,6892.659000000002,94.916,515.63,513.419,0.0
51109.0,STARLINK-3358,PAYLOAD,2022-05-20 14:00:01,15.16541314,0.0001479,53.2174,45.3093,54.3521,25.0871,-0.022407,-0.00417964,0.0,0 STARLINK-3358,1 51109U 22005F   22140.58334491 -.00417964  00000-0 -22407-1 0  9990,2 51109  53.2174  45.3093 0001479  54.3521  25.0871 15.16541314  1303,6894.44,94.953,517.325,515.286,0.0
51109.0,STARLINK-3358,PAYLOAD,2022-05-20 22:00:00,15.16250071,0.0001548,53.2175,43.7958,55.3994,44.7114,-0.022766,-0.00420961,0.0,0 STARLINK-3358,1 51109U 22005F   22140.91667824 -.00420961  00000-0 -22766-1 0  9995,2 51109  53.2175  43.7958 0001548  55.3994  44.7114 15.16250071  1303,6895.323,94.971,518.255,516.121,0.0
51109.0,STARLINK-3358,PAYLOAD,2022-05-21 06:00:00,15.15955836,0.0001426,53.2172,42.2821,59.5953,60.8363,-0.022772,-0.00417723,0.0,0 STARLINK-3358,1 51109U 22005F   22141.25001157 -.00417723  00000-0 -22772-1 0  9993,2 51109  53.2172  42.2821 0001426  59.5953  60.8363 15.15955836 20383,6896.215,94.99,519.064,517.097,0.0
51109.0,STARLINK-3358,PAYLOAD,2022-05-21 14:00:01,15.15663467,0.0001514,53.2173,40.767,55.0339,85.4308,-0.023081,-0.00419758,0.0,0 STARLINK-3358,1 51109U 22005F   22141.58335648 -.00419758  00000-0 -23081-1 0  9998,2 51109  53.2173  40.7670 0001514  55.0339  85.4308 15.15663467  1305,6897.102,95.008,520.011,517.923,0.0
51109.0,STARLINK-3358,PAYLOAD,2022-05-21 22:00:00,15.15369585,0.0001766,53.2175,39.2556,46.3505,113.6676,-0.023197,-0.00418438,0.0,0 STARLINK-3358,1 51109U 22005F   22141.91667824 -.00418438  00000-0 -23197-1 0  9991,2 51109  53.2175  39.2556 0001766  46.3505 113.6676 15.15369585  1306,6897.994000000002,95.026,521.077,518.641,0.0
51109.0,STARLINK-3358,PAYLOAD,2022-05-22 14:00:01,15.14784953,0.0001553,53.2172,36.2309,56.9079,141.2879,-0.023712,-0.00420539,0.0,0 STARLINK-3358,1 51109U 22005F   22142.58334491 -.00420539  00000-0 -23712-1 0  9994,2 51109  53.2172  36.2309 0001553  56.9079 141.2879 15.14784953 20585,6899.769,95.063,522.705,520.562,0.0
51109.0,STARLINK-3358,PAYLOAD,2022-05-22 22:00:01,15.1449,0.0001713,53.2175,34.7216,50.6171,166.2026,-0.023711,-0.00417218,0.0,0 STARLINK-3358,1 51109U 22005F   22142.91668981 -.00417218  00000-0 -23711-1 0  9994,2 51109  53.2175  34.7216 0001713  50.6171 166.2026 15.14490000  1307,6900.6640000000025,95.082,523.711,521.347,0.0
51109.0,STARLINK-3358,PAYLOAD,2022-05-23 14:00:01,15.139052599999998,0.0001501,53.2172,31.7008,60.7447,192.0778,-0.024239,-0.00419371,0.0,0 STARLINK-3358,1 51109U 22005F   22143.58334491 -.00419371  00000-0 -24239-1 0  9992,2 51109  53.2172  31.7008 0001501  60.7447 192.0778 15.13905260  1302,6902.441,95.118,525.342,523.27,0.0
51109.0,STARLINK-3358,PAYLOAD,2022-05-23 22:00:01,15.13611251,0.0001669,53.2174,30.1938,51.6641,218.7255,-0.024316,-0.00417351,0.0,0 STARLINK-3358,1 51109U 22005F   22143.91668981 -.00417351  00000-0 -24316-1 0  9995,2 51109  53.2174  30.1938 0001669  51.6641 218.7255 15.13611251 20782,6903.335,95.137,526.352,524.048,0.0
51109.0,STARLINK-3358,PAYLOAD,2022-05-24 14:00:01,15.13025082,0.0001469,53.2173,27.177,59.4954,244.7855,-0.024716,-0.00417264,0.0,0 STARLINK-3358,1 51109U 22005F   22144.58334491 -.00417264  00000-0 -24716-1 0  9992,2 51109  53.2173  27.1770 0001469  59.4954 244.7855 15.13025082  1305,6905.118,95.174,527.997,525.9680000000002,0.0
